CELESTIS-02 & TAURUS R/B
1 25160U 98007D   26065.14788757  .00000014  00000+0  63083-4 0  9992
2 25160 108.0082 124.3076 0063283 307.9390  72.9012 14.22451980455866
