[{"OBJECT_NAME":"CELESTIS-02 & TAURUS R/B","OBJECT_ID":"1998-007D","EPOCH":"2026-03-06T03:32:57.486048","MEAN_MOTION":14.2245198,"ECCENTRICITY":0.0063283,"INCLINATION":108.0082,"RA_OF_ASC_NODE":124.3076,"ARG_OF_PERICENTER":307.939,"MEAN_ANOMALY":72.9012,"EPHEMERIS_TYPE":0,"CLASSIFICATION_TYPE":"U","NORAD_CAT_ID":25160,"ELEMENT_SET_NO":999,"REV_AT_EPOCH":45586,"BSTAR":6.3083367e-5,"MEAN_MOTION_DOT":1.4e-7,"MEAN_MOTION_DDOT":0}]
